NORAD_CAT_ID,OBJECT_NAME,OBJECT_TYPE,EPOCH,MEAN_MOTION,ECCENTRICITY,INCLINATION,RA_OF_ASC_NODE,ARG_OF_PERICENTER,MEAN_ANOMALY,BSTAR,MEAN_MOTION_DOT,MEAN_MOTION_DDOT,TLE_LINE0,TLE_LINE1,TLE_LINE2,SEMIMAJOR_AXIS,PERIOD,APOGEE,PERIGEE,DECAYED
52096.0,STARLINK-3717,PAYLOAD,2023-05-10 00:59:09,15.08840594,0.0001297,53.218,43.8373,91.7045,268.4096,0.00017968,2.573e-05,0.0,0 STARLINK-3717,1 52096U 22029J   23130.04108708  .00002573  00000-0  17968-3 0  9995,2 52096  53.2180  43.8373 0001297  91.7045 268.4096 15.08840594 64588,6917.879,95.438,540.641,538.846,0.0
52096.0,STARLINK-3717,PAYLOAD,2023-05-11 00:49:56,15.08849999,0.0001297,53.2177,39.3784,93.1815,266.9325,8.5945e-05,1.081e-05,0.0,0 STARLINK-3717,1 52096U 22029J   23131.03468359  .00001081  00000-0  85945-4 0  9990,2 52096  53.2177  39.3784 0001297  93.1815 266.9325 15.08849999 64734,6917.85,95.437,540.612,538.818,0.0
52096.0,STARLINK-3717,PAYLOAD,2023-05-12 00:40:44,15.08836263,0.0001137,53.2167,34.9128,83.4147,276.6975,3.7468e-05,3.08e-06,0.0,0 STARLINK-3717,1 52096U 22029J   23132.02829087  .00000308  00000-0  37468-4 0  9997,2 52096  53.2167  34.9128 0001137  83.4147 276.6975 15.08836263 64884,6917.892,95.438,540.543,538.97,0.0
52096.0,STARLINK-3717,PAYLOAD,2023-05-12 21:20:44,15.08844804,0.0001291,53.218,31.0527,117.4496,242.6627,7.5284e-05,9.11e-06,0.0,0 STARLINK-3717,1 52096U 22029J   23132.88940769  .00000911  00000-0  75284-4 0  9990,2 52096  53.2180  31.0527 0001291 117.4496 242.6627 15.08844804 65019,6917.866,95.437,540.624,538.838,0.0
52096.0,STARLINK-3717,PAYLOAD,2023-05-13 02:06:53,15.08863181,0.0001234,53.2177,30.1603,122.8315,237.2797,0.00032854,4.948e-05,0.0,0 STARLINK-3717,1 52096U 22029J   23133.08811695  .00004948  00000-0  32854-3 0  9997,2 52096  53.2177  30.1603 0001234 122.8315 237.2797 15.08863181 65047,6917.81,95.436,540.528,538.821,0.0
52096.0,STARLINK-3717,PAYLOAD,2023-05-13 21:11:32,15.0883121,0.000126,53.218,26.5923,115.805,244.3073,-7.1818e-05,-1.43e-05,0.0,0 STARLINK-3717,1 52096U 22029J   23133.88301576 -.00001430  00000-0 -71818-4 0  9996,2 52096  53.2180  26.5923 0001260 115.8050 244.3073 15.08831210 65169,6917.907,95.438,540.644,538.901,0.0
52096.0,STARLINK-3717,PAYLOAD,2023-05-14 00:22:18,15.0883348,0.0001213,53.2179,25.997,101.6478,258.465,-3.3755e-05,-8.25e-06,0.0,0 STARLINK-3717,1 52096U 22029J   23134.01549600 -.00000825  00000-0 -33755-4 0  9999,2 52096  53.2179  25.9970 0001213 101.6478 258.4650 15.08833480 65187,6917.9,95.438,540.604,538.926,0.0
52096.0,STARLINK-3717,PAYLOAD,2023-05-14 03:33:04,15.08838713,0.0001162,53.2175,25.4014,106.2899,253.8221,3.9133e-05,3.35e-06,0.0,0 STARLINK-3717,1 52096U 22029J   23134.14797335  .00000335  00000-0  39133-4 0  9993,2 52096  53.2175  25.4014 0001162 106.2899 253.8221 15.08838713 65208,6917.884,95.438,540.553,538.945,0.0
52096.0,STARLINK-3717,PAYLOAD,2023-05-14 21:02:19,15.08841765,0.0001267,53.218,22.1322,88.2406,271.8731,-7.9326e-05,-1.55e-05,0.0,0 STARLINK-3717,1 52096U 22029J   23134.87661601 -.00001550  00000-0 -79326-4 0  9999,2 52096  53.2180  22.1322 0001267  88.2406 271.8731 15.08841765 65318,6917.875,95.437,540.616,538.863,0.0
52096.0,STARLINK-3717,PAYLOAD,2023-05-15 00:13:05,15.08846245,0.0001167,53.2178,21.5371,101.1775,258.9349,-1.8895e-05,-5.89e-06,0.0,0 STARLINK-3717,1 52096U 22029J   23135.00909025 -.00000589  00000-0 -18895-4 0  9995,2 52096  53.2178  21.5371 0001167 101.1775 258.9349 15.08846245 65336,6917.861,95.437,540.534,538.919,0.0
52096.0,STARLINK-3717,PAYLOAD,2023-05-15 09:45:24,15.08844483,0.0001159,53.2178,19.7531,96.9175,263.1949,2.3757e-05,9e-07,0.0,0 STARLINK-3717,1 52096U 22029J   23135.40653199  .00000090  00000-0  23757-4 0  9995,2 52096  53.2178  19.7531 0001159  96.9175 263.1949 15.08844483 65391,6917.867,95.437,540.533,538.93,0.0
52096.0,STARLINK-3717,PAYLOAD,2023-05-15 16:06:57,15.08839528,0.0001247,53.2181,18.5632,91.149,268.9645,0.00018161,2.604e-05,0.0,0 STARLINK-3717,1 52096U 22029J   23135.67149923  .00002604  00000-0  18161-3 0  9994,2 52096  53.2181  18.5632 0001247  91.1490 268.9645 15.08839528 65434,6917.882,95.438,540.609,538.884,0.0
52096.0,STARLINK-3717,PAYLOAD,2023-05-16 01:39:16,15.08846788,0.0001261,53.2181,16.7786,100.1866,259.9269,0.00022837,3.349e-05,0.0,0 STARLINK-3717,1 52096U 22029J   23136.06893545  .00003349  00000-0  22837-3 0  9996,2 52096  53.2181  16.7786 0001261 100.1866 259.9269 15.08846788 65492,6917.86,95.437,540.597,538.852,0.0
52096.0,STARLINK-3717,PAYLOAD,2023-05-16 22:19:17,15.08840629,0.0001133,53.2181,12.9126,82.5798,277.5323,2.1251e-05,5e-07,0.0,0 STARLINK-3717,1 52096U 22029J   23136.93005859  .00000050  00000-0  21251-4 0  9991,2 52096  53.2181  12.9126 0001133  82.5798 277.5323 15.08840629 65623,6917.878,95.438,540.527,538.96,0.0
52096.0,STARLINK-3717,PAYLOAD,2023-05-17 18:59:15,15.08895671,0.0001616,53.2177,9.0448,81.832,278.2855,-0.00079651,-0.00012962,0.0,0 STARLINK-3717,1 52096U 22029J   23137.79115719 -.00012962  00000-0 -79651-3 0  9996,2 52096  53.2177   9.0448 0001616  81.8320 278.2855 15.08895671 65750,6917.71,95.434,540.693,538.457,0.0
52096.0,STARLINK-3717,PAYLOAD,2023-05-17 22:10:03,15.08844334,0.0001166,53.2178,8.4493,92.1563,267.9562,3.36e-05,2.47e-06,0.0,0 STARLINK-3717,1 52096U 22029J   23137.92365567  .00000247  00000-0  33600-4 0  9995,2 52096  53.2178   8.4493 0001166  92.1563 267.9562 15.08844334 65770,6917.867,95.437,540.539,538.926,0.0
52096.0,STARLINK-3717,PAYLOAD,2023-05-18 01:20:50,15.08843443,0.0001242,53.2186,7.8557,93.3078,266.8056,2.2244e-05,6.6e-07,0.0,0 STARLINK-3717,1 52096U 22029J   23138.05613602  .00000066  00000-0  22244-4 0  9997,2 52096  53.2186   7.8557 0001242  93.3078 266.8056 15.08843443 65790,6917.87,95.437,540.594,538.876,0.0
52096.0,STARLINK-3717,PAYLOAD,2023-05-19 01:11:37,15.0883825,0.0001248,53.219,3.3951,92.3715,267.742,6.4313e-05,7.36e-06,0.0,0 STARLINK-3717,1 52096U 22029J   23139.04973887  .00000736  00000-0  64313-4 0  9998,2 52096  53.2190   3.3951 0001248  92.3715 267.7420 15.08838250 65949,6917.886,95.438,540.614,538.887,0.0
52096.0,STARLINK-3717,PAYLOAD,2023-05-19 21:51:38,15.08837811,0.0001002,53.2182,359.5304,94.6155,265.4951,4.3737e-05,4.08e-06,0.0,0 STARLINK-3717,1 52096U 22029J   23139.91086157  .00000408  00000-0  43737-4 0  9992,2 52096  53.2182 359.5304 0001002  94.6155 265.4951 15.08837811 66070,6917.887,95.438,540.445,539.059,0.0
52096.0,STARLINK-3717,PAYLOAD,2023-05-20 16:56:15,15.08858399,0.000103,53.2187,355.9618,94.5335,265.5774,-9.0779e-05,-1.733e-05,0.0,0 STARLINK-3717,1 52096U 22029J   23140.70573642 -.00001733  00000-0 -90779-4 0  9993,2 52096  53.2187 355.9618 0001030  94.5335 265.5774 15.08858399 66194,6917.824,95.436,540.402,538.977,0.0
52096.0,STARLINK-3717,PAYLOAD,2023-05-20 20:07:01,15.08854977,8.72e-05,53.2177,355.3682,102.4821,257.6269,4.8449e-05,4.84e-06,0.0,0 STARLINK-3717,1 52096U 22029J   23140.83821181  .00000484  00000-0  48449-4 0  9998,2 52096  53.2177 355.3682 0000872 102.4821 257.6269 15.08854977 66212,6917.835,95.437,540.303,539.096,0.0
52096.0,STARLINK-3717,PAYLOAD,2023-05-21 13:36:17,15.0882723,0.0001504,53.2165,352.0978,89.0034,271.1131,-6.0304e-05,-1.247e-05,0.0,0 STARLINK-3717,1 52096U 22029J   23141.56686837 -.00001247  00000-0 -60304-4 0  9990,2 52096  53.2165 352.0978 0001504  89.0034 271.1131 15.08827230 66323,6917.919,95.438,540.825,538.744,0.0
52096.0,STARLINK-3717,PAYLOAD,2023-05-21 16:47:03,15.08823919,0.0001043,53.2171,351.5023,92.153,267.9581,-0.00013895,-2.497e-05,0.0,0 STARLINK-3717,1 52096U 22029J   23141.69935066 -.00002497  00000-0 -13895-3 0  9995,2 52096  53.2171 351.5023 0001043  92.1530 267.9581 15.08823919 66343,6917.93,95.439,540.516,539.073,0.0
52096.0,STARLINK-3717,PAYLOAD,2023-05-21 18:22:27,15.08826765,9.7e-05,53.2172,351.2052,88.1074,272.0029,-7.761e-05,-1.522e-05,0.0,0 STARLINK-3717,1 52096U 22029J   23141.76559043 -.00001522  00000-0 -77610-4 0  9994,2 52096  53.2172 351.2052 0000970  88.1074 272.0029 15.08826765 66356,6917.921,95.438,540.457,539.115,0.0
52096.0,STARLINK-3717,PAYLOAD,2023-05-22 07:05:31,15.08837798,9.87e-05,53.2167,348.8255,109.9082,250.2017,0.00026337,3.906e-05,0.0,0 STARLINK-3717,1 52096U 22029J   23142.29550817  .00003906  00000-0  26337-3 0  9998,2 52096  53.2167 348.8255 0000987 109.9082 250.2017 15.08837798 66438,6917.887,95.438,540.435,539.069,0.0
52096.0,STARLINK-3717,PAYLOAD,2023-05-22 19:48:37,15.08852187,9.34e-05,53.2166,346.4463,113.7097,246.3993,0.0010638,0.00016689,0.0,0 STARLINK-3717,1 52096U 22029J   23142.82542877  .00016689  00000-0  10638-2 0  9992,2 52096  53.2166 346.4463 0000934 113.7097 246.3993 15.08852187 66510,6917.843,95.437,540.354,539.062,0.0
52096.0,STARLINK-3717,PAYLOAD,2023-05-23 02:10:09,15.08865076,9.35e-05,53.2166,345.2566,112.7363,247.3728,0.0011939,0.00018777,0.0,0 STARLINK-3717,1 52096U 22029J   23143.09038481  .00018777  00000-0  11939-2 0  9998,2 52096  53.2166 345.2566 0000935 112.7363 247.3728 15.08865076 66559,6917.804,95.436,540.316,539.022,0.0
52096.0,STARLINK-3717,PAYLOAD,2023-05-23 05:20:55,15.08841564,7.9e-05,53.2167,344.6626,114.3985,245.709,0.00021087,3.07e-05,0.0,0 STARLINK-3717,1 52096U 22029J   23143.22286813  .00003070  00000-0  21087-3 0  9993,2 52096  53.2167 344.6626 0000790 114.3985 245.7090 15.08841564 66579,6917.876,95.437,540.287,539.194,0.0
52096.0,STARLINK-3717,PAYLOAD,2023-05-23 21:14:47,15.08848026,8.45e-05,53.2169,341.6895,88.5799,271.529,0.0011246,0.00017659,0.0,0 STARLINK-3717,1 52096U 22029J   23143.88526800  .00017659  00000-0  11246-2 0  9991,2 52096  53.2169 341.6895 0000845  88.5799 271.5290 15.08848026 66672,6917.856,95.437,540.305,539.136,0.0
52096.0,STARLINK-3717,PAYLOAD,2023-05-24 16:19:24,15.08844992,8.03e-05,53.217,338.1206,83.6537,276.4547,0.00053812,8.288e-05,0.0,0 STARLINK-3717,1 52096U 22029J   23144.68014918  .00008288  00000-0  53812-3 0  9996,2 52096  53.2170 338.1206 0000803  83.6537 276.4547 15.08844992 66791,6917.865,95.437,540.286,539.175,0.0
